OBJECT_NAME,OBJECT_ID,EPOCH,MEAN_MOTION,ECCENTRICITY,INCLINATION,RA_OF_ASC_NODE,ARG_OF_PERICENTER,MEAN_ANOMALY,EPHEMERIS_TYPE,CLASSIFICATION_TYPE,NORAD_CAT_ID,ELEMENT_SET_NO,REV_AT_EPOCH,BSTAR,MEAN_MOTION_DOT,MEAN_MOTION_DDOT
STARLINK-4297,2022-101S,2026-07-23T07:13:18.439968,15.34399802,.00015069,53.1623,170.1598,73.7692,286.3477,0,U,53543,999,21753,.95535447E-4,.2853E-4,0
STARLINK-4303,2022-101T,2026-07-23T04:48:45.919008,15.35401375,.00013783,53.1609,171.1185,99.3607,260.7552,0,U,53544,999,21749,.4235032E-4,.1097E-4,0
STARLINK-4475,2022-101U,2026-07-23T06:44:27.521376,15.35398668,.00012959,53.1619,170.7835,71.4942,288.6202,0,U,53545,999,21752,.18499829E-4,.265E-5,0
STARLINK-4477,2022-101V,2026-07-23T06:58:35.937408,15.35421066,.00017737,53.1607,160.3330,66.0071,294.1118,0,U,53546,999,21698,.15588394E-3,.5064E-4,0
STARLINK-4474,2022-101W,2026-07-23T04:39:02.231712,15.35402114,.00013426,53.1617,171.0374,90.7343,269.3814,0,U,53547,999,21749,-.1309058E-5,-.426E-5,0
STARLINK-4513,2022-101X,2026-07-23T04:54:38.434464,15.08834276,.00015043,53.1597,175.4580,74.2582,285.8575,0,U,53548,999,21676,-.16862E-6,-.291E-5,0
STARLINK-4514,2022-101AA,2026-07-23T06:00:02.000160,15.25696989,.00012369,53.1607,174.5306,99.4830,142.1641,0,U,53551,999,574,.41411989E-1,.116101E-1,0
STARLINK-4495,2022-101AB,2026-07-23T04:38:44.620800,15.08840059,.00011815,53.1604,175.5083,81.6824,278.4301,0,U,53552,999,21741,.60081263E-4,.668E-5,0
STARLINK-4501,2022-101AC,2026-07-23T04:28:07.283424,15.08835571,.00013165,53.1609,175.4116,77.0984,283.0155,0,U,53553,999,21742,.58470057E-4,.643E-5,0
STARLINK-4506,2022-101AD,2026-07-23T04:29:31.538976,15.08840740,.00013639,53.1607,175.5445,84.8270,275.2877,0,U,53554,999,21676,.13626968E-4,-.71E-6,0
STARLINK-4504,2022-101AE,2026-07-23T04:44:03.197472,15.08847461,.00014826,53.1593,175.4901,84.8636,275.2525,0,U,53555,999,21742,.19681964E-3,.2846E-4,0
STARLINK-4505,2022-101AF,2026-07-23T04:17:34.632384,15.08816628,.00014543,53.1617,175.5729,80.3960,279.7195,0,U,53556,999,21676,.22075006E-3,.3225E-4,0
STARLINK-4502,2022-101AG,2026-07-23T04:33:26.496864,15.08836753,.00015238,53.1611,175.5223,79.1671,280.9491,0,U,53557,999,21741,.32834493E-4,.234E-5,0
STARLINK-4494,2022-101AH,2026-07-23T06:00:02.000160,15.15893299,.00011822,53.1589,169.8709,56.5098,12.3289,0,U,53558,999,555,.2538392E-2,.49215E-3,0
STARLINK-4564,2022-101AK,2026-07-23T06:00:02.000160,15.20273642,.00014548,53.1592,165.1769,122.4881,155.8970,0,U,53560,999,579,.44247996E-2,.98267E-3,0
STARLINK-4563,2022-101AL,2026-07-23T06:00:02.000160,15.27224272,.00017761,53.1589,174.3483,79.0040,74.9200,0,U,53561,999,555,.38073099E-1,.1113649E-1,0
STARLINK-4565,2022-101AM,2026-07-23T07:07:10.475328,15.34396164,.00013527,53.1611,160.3964,77.3505,282.7648,0,U,53562,999,21764,.59111029E-4,.1621E-4,0
STARLINK-4561,2022-101AN,2026-07-23T04:15:45.548928,15.35406508,.00012043,53.1606,161.0725,93.4414,266.6727,0,U,53563,999,21696,.68843714E-4,.2022E-4,0
STARLINK-4577,2022-101AP,2026-07-23T06:10:41.891520,15.35402852,.00015754,53.1625,160.8537,82.1591,277.9591,0,U,53564,999,21697,.5974335E-5,-.172E-5,0
STARLINK-4575,2022-101AQ,2026-07-23T06:03:08.121312,15.35410797,.00019036,53.1631,160.8221,86.5820,273.5401,0,U,53565,999,21763,.2650264E-5,-.289E-5,0
STARLINK-4576,2022-101AR,2026-07-23T07:16:16.245120,15.34393575,.00013589,53.1622,160.4364,60.2312,299.8826,0,U,53566,999,21767,.1718675E-4,.204E-5,0
STARLINK-4585,2022-101AS,2026-07-23T06:00:02.000160,15.19799407,.00007098,53.1607,165.0984,143.2448,174.0926,0,U,53567,999,564,.441097E-2,.96591E-3,0
STARLINK-4583,2022-101AT,2026-07-23T06:09:44.284320,15.34388727,.00012749,53.1602,160.8533,69.1179,290.9960,0,U,53568,999,21766,-.6477791E-4,-.2563E-4,0
STARLINK-4582,2022-101AU,2026-07-23T06:16:58.478880,15.35403642,.00014892,53.1610,160.8825,83.2486,276.8686,0,U,53569,999,21764,.1808558E-5,-.318E-5,0
STARLINK-4550,2022-101AV,2026-07-23T06:58:50.703168,15.33545953,.00013676,53.1611,160.3620,70.9842,289.1309,0,U,53570,999,21767,.2822833E-4,.556E-5,0
STARLINK-4584,2022-101AW,2026-07-23T06:12:46.305792,15.34388882,.00014329,53.1631,160.8699,76.4643,283.6519,0,U,53571,999,21766,-.7925743E-5,-.644E-5,0
STARLINK-4555,2022-101AX,2026-07-23T07:07:34.262112,15.35399282,.00012343,53.1626,160.3968,91.0859,269.0285,0,U,53572,999,21698,.12958444E-4,.72E-6,0
STARLINK-4559,2022-101AZ,2026-07-23T03:53:31.574400,15.34388285,.00012151,53.1621,160.9753,75.6662,284.4476,0,U,53574,999,21696,.1243038E-4,.44E-6,0
STARLINK-4551,2022-101BA,2026-07-23T06:42:56.420352,15.34390877,.00014606,53.1620,160.2937,62.4159,297.6992,0,U,53575,999,21767,-.1854994E-5,-.439E-5,0
STARLINK-4581,2022-101BB,2026-07-23T06:00:02.000160,15.15729535,.00007445,53.1602,164.9601,43.0159,342.2955,0,U,53576,999,559,.46019442E-2,.8956E-3,0
