STARLINK-4297           
1 53543U 22101S   26204.30090787  .00002853  00000+0  95535-4 0  9992
2 53543  53.1623 170.1598 0001506  73.7692 286.3477 15.34399802217538
STARLINK-4303           
1 53544U 22101T   26204.20053147  .00001097  00000+0  42350-4 0  9997
2 53544  53.1609 171.1185 0001378  99.3607 260.7552 15.35401375217498
STARLINK-4475           
1 53545U 22101U   26204.28087409  .00000265  00000+0  18500-4 0  9990
2 53545  53.1619 170.7835 0001295  71.4942 288.6202 15.35398668217523
STARLINK-4477           
1 53546U 22101V   26204.29069372  .00005064  00000+0  15588-3 0  9995
2 53546  53.1607 160.3330 0001773  66.0071 294.1118 15.35421066216986
STARLINK-4474           
1 53547U 22101W   26204.19377583 -.00000426  00000+0 -13091-5 0  9999
2 53547  53.1617 171.0374 0001342  90.7343 269.3814 15.35402114217490
STARLINK-4513           
1 53548U 22101X   26204.20461151 -.00000291  00000+0 -16862-6 0  9997
2 53548  53.1597 175.4580 0001504  74.2582 285.8575 15.08834276216761
STARLINK-4514           
1 53551U 22101AA  26204.25002315  .01161010  00000+0  41412-1 0  9999
2 53551  53.1607 174.5306 0001236  99.4830 142.1641 15.25696989  5749
STARLINK-4495           
1 53552U 22101AB  26204.19357200  .00000668  00000+0  60081-4 0  9995
2 53552  53.1604 175.5083 0001181  81.6824 278.4301 15.08840059217410
STARLINK-4501           
1 53553U 22101AC  26204.18619541  .00000643  00000+0  58470-4 0  9996
2 53553  53.1609 175.4116 0001316  77.0984 283.0155 15.08835571217421
STARLINK-4506           
1 53554U 22101AD  26204.18717059 -.00000071  00000+0  13627-4 0  9991
2 53554  53.1607 175.5445 0001363  84.8270 275.2877 15.08840740216766
STARLINK-4504           
1 53555U 22101AE  26204.19725923  .00002846  00000+0  19682-3 0  9999
2 53555  53.1593 175.4901 0001482  84.8636 275.2525 15.08847461217426
STARLINK-4505           
1 53556U 22101AF  26204.17887306  .00003225  00000+0  22075-3 0  9994
2 53556  53.1617 175.5729 0001454  80.3960 279.7195 15.08816628216762
STARLINK-4502           
1 53557U 22101AG  26204.18989001  .00000234  00000+0  32834-4 0  9993
2 53557  53.1611 175.5223 0001523  79.1671 280.9491 15.08836753217415
STARLINK-4494           
1 53558U 22101AH  26204.25002315  .00049215  00000+0  25384-2 0  9998
2 53558  53.1589 169.8709 0001182  56.5098  12.3289 15.15893299  5556
STARLINK-4564           
1 53560U 22101AK  26204.25002315  .00098267  00000+0  44248-2 0  9992
2 53560  53.1592 165.1769 0001454 122.4881 155.8970 15.20273642  5799
STARLINK-4563           
1 53561U 22101AL  26204.25002315  .01113649  00000+0  38073-1 0  9994
2 53561  53.1589 174.3483 0001776  79.0040  74.9200 15.27224272  5555
STARLINK-4565           
1 53562U 22101AM  26204.29664902  .00001621  00000+0  59111-4 0  9999
2 53562  53.1611 160.3964 0001352  77.3505 282.7648 15.34396164217646
STARLINK-4561           
1 53563U 22101AN  26204.17761052  .00002022  00000+0  68844-4 0  9990
2 53563  53.1606 161.0725 0001204  93.4414 266.6727 15.35406508216966
STARLINK-4577           
1 53564U 22101AP  26204.25742930 -.00000172  00000+0  59743-5 0  9998
2 53564  53.1625 160.8537 0001575  82.1591 277.9591 15.35402852216971
STARLINK-4575           
1 53565U 22101AQ  26204.25217733 -.00000289  00000+0  26503-5 0  9994
2 53565  53.1631 160.8221 0001903  86.5820 273.5401 15.35410797217630
STARLINK-4576           
1 53566U 22101AR  26204.30296580  .00000204  00000+0  17187-4 0  9991
2 53566  53.1622 160.4364 0001358  60.2312 299.8826 15.34393575217673
STARLINK-4585           
1 53567U 22101AS  26204.25002315  .00096591  00000+0  44110-2 0  9995
2 53567  53.1607 165.0984 0000709 143.2448 174.0926 15.19799407  5641
STARLINK-4583           
1 53568U 22101AT  26204.25676255 -.00002563  00000+0 -64778-4 0  9998
2 53568  53.1602 160.8533 0001274  69.1179 290.9960 15.34388727217664
STARLINK-4582           
1 53569U 22101AU  26204.26178795 -.00000318  00000+0  18086-5 0  9993
2 53569  53.1610 160.8825 0001489  83.2486 276.8686 15.35403642217645
STARLINK-4550           
1 53570U 22101AV  26204.29086462  .00000556  00000+0  28228-4 0  9998
2 53570  53.1611 160.3620 0001367  70.9842 289.1309 15.33545953217672
STARLINK-4584           
1 53571U 22101AW  26204.25886928 -.00000644  00000+0 -79257-5 0  9999
2 53571  53.1631 160.8699 0001432  76.4643 283.6519 15.34388882217667
STARLINK-4555           
1 53572U 22101AX  26204.29692433  .00000072  00000+0  12958-4 0  9997
2 53572  53.1626 160.3968 0001234  91.0859 269.0285 15.35399282216987
STARLINK-4559           
1 53574U 22101AZ  26204.16217100  .00000044  00000+0  12430-4 0  9993
2 53574  53.1621 160.9753 0001215  75.6662 284.4476 15.34388285216962
STARLINK-4551           
1 53575U 22101BA  26204.27981968 -.00000439  00000+0 -18550-5 0  9996
2 53575  53.1620 160.2937 0001460  62.4159 297.6992 15.34390877217674
STARLINK-4581           
1 53576U 22101BB  26204.25002315  .00089560  00000+0  46019-2 0  9993
2 53576  53.1602 164.9601 0000744  43.0159 342.2955 15.15729535  5591
